STARLINK-4404           
1 53195U 22084G   22226.91667824  .00002179  00000+0  38978-4 0  9993
2 53195  97.6547 286.3214 0001649 118.0146 112.0591 15.51252121  1308
STARLINK-4407           
1 53196U 22084H   22226.91667824  .00002515  00000+0  44728-4 0  9998
2 53196  97.6550 286.3206 0001745  98.6124 129.9121 15.51246657  1303
STARLINK-4403           
1 53197U 22084J   22226.91667824  .00002541  00000+0  45177-4 0  9997
2 53197  97.6546 286.3218 0001724  99.0916 133.0328 15.51242413  1304
STARLINK-4385           
1 53198U 22084K   22226.91667824  .00001978  00000+0  35598-4 0  9997
2 53198  97.6547 286.3214 0001634 106.6446 123.9752 15.51206356  1300
STARLINK-4395           
1 53199U 22084L   22226.91667824  .00002730  00000+0  48362-4 0  9998
2 53199  97.6556 286.3229 0001810 101.1357 132.5516 15.51263849  1308
STARLINK-4417           
1 53200U 22084M   22226.91667824 -.00002157  00000+0 -35121-4 0  9995
2 53200  97.6545 286.3213 0001873  95.9694 135.5464 15.51265625  1304
STARLINK-4405           
1 53201U 22084N   22226.91667824 -.00032537  00000+0 -55614-3 0  9999
2 53201  97.6548 286.3217 0001563 106.4941 128.6550 15.51283979  1302
STARLINK-4411           
1 53202U 22084P   22226.91667824  .00001627  00000+0  29557-4 0  9992
2 53202  97.6548 286.3232 0001469  94.7275 138.1943 15.51241236  1306
STARLINK-4409           
1 53203U 22084Q   22226.91667824 -.00020054  00000+0 -34163-3 0  9998
2 53203  97.6546 286.3199 0002108 112.2510 125.0867 15.51277129  1306
STARLINK-4410           
1 53204U 22084R   22226.91667824 -.00033819  00000+0 -57907-3 0  9993
2 53204  97.6545 286.3208 0001464 120.2144 114.2600 15.51242307  1308
STARLINK-4397           
1 53205U 22084S   22226.91667824  .00002019  00000+0  36254-4 0  9993
2 53205  97.6548 286.3191 0001732 108.0002 130.6714 15.51244919  1307
STARLINK-4408           
1 53206U 22084T   22226.91667824  .00002503  00000+0  44472-4 0  9993
2 53206  97.6546 286.3216 0002058  98.4766 137.8154 15.51280581  1307
STARLINK-4413           
1 53207U 22084U   22226.91667824  .00000843  00000+0  16148-4 0  9998
2 53207  97.6538 286.3180 0001565  92.9303 146.5507 15.51249106  1304
STARLINK-4425           
1 53208U 22084V   22226.91667824  .00001120  00000+0  20849-4 0  9991
2 53208  97.6558 286.3216 0001631 107.7305 127.9933 15.51296570  1301
STARLINK-4423           
1 53209U 22084W   22227.00001157  .00050130  00000+0  85416-3 0  9999
2 53209  97.6537 286.4061 0001662  97.5402 247.7472 15.51223433  4171
STARLINK-4427           
1 53210U 22084X   22226.91667824  .00001200  00000+0  22264-4 0  9996
2 53210  97.6555 286.3198 0001679  76.1863 161.8711 15.51229101  1307
STARLINK-4419           
1 53211U 22084Y   22226.91667824  .00001267  00000+0  23388-4 0  9998
2 53211  97.6549 286.3159 0001956 111.5216 130.8396 15.51257933  1301
STARLINK-4416           
1 53212U 22084Z   22226.91667824  .00001621  00000+0  29472-4 0  9993
2 53212  97.6554 286.3177 0001796 102.2092 138.7990 15.51228826  1305
STARLINK-4414           
1 53213U 22084AA  22226.91667824 -.00000618  00000+0 -88197-5 0  9991
2 53213  97.6538 286.3133 0001788 102.9532 142.3296 15.51258325  1304
STARLINK-4353           
1 53214U 22084AB  22226.91667824 -.00024067  00000+0 -41064-3 0  9996
2 53214  97.6552 286.3166 0001685 103.8893 137.7530 15.51272527  1302
STARLINK-4335           
1 53215U 22084AC  22226.91667824  .00001455  00000+0  26626-4 0  9999
2 53215  97.6550 286.3125 0001748 116.6762 129.2669 15.51232604  1304
STARLINK-4376           
1 53216U 22084AD  22226.91667824  .00001192  00000+0  22101-4 0  9992
2 53216  97.6549 286.3157 0002018 103.6011 139.2067 15.51272768  1300
STARLINK-4379           
1 53217U 22084AE  22226.91667824 -.00010310  00000+0 -17444-3 0  9990
2 53217  97.6532 286.3109 0001715 111.8261 135.5431 15.51300416  1307
STARLINK-4384           
1 53218U 22084AF  22226.91667824 -.00009796  00000+0 -16565-3 0  9990
2 53218  97.6552 286.3143 0001374 104.5842 139.8704 15.51299674  1306
STARLINK-4373           
1 53219U 22084AG  22226.91667824 -.00021899  00000+0 -37325-3 0  9996
2 53219  97.6529 286.3081 0001892 106.0468 143.6095 15.51281705  1300
STARLINK-4363           
1 53220U 22084AH  22226.91667824  .00001246  00000+0  23015-4 0  9992
2 53220  97.6548 286.3129 0001434  97.9388 148.5670 15.51281759  1309
STARLINK-4377           
1 53221U 22084AJ  22226.91667824 -.00067882  00000+0 -11655-2 0  9998
2 53221  97.6539 286.3088 0001628 104.1514 146.1355 15.51328023  1301
STARLINK-4381           
1 53222U 22084AK  22226.91667824 -.00052253  00000+0 -89530-3 0  9993
2 53222  97.6538 286.3100 0001772 112.5757 135.5395 15.51318290  1309
STARLINK-4354           
1 53223U 22084AL  22226.91667824  .00000308  00000+0  70061-5 0  9997
2 53223  97.6521 286.3058 0001678 105.7333 146.0805 15.51266543  1309
STARLINK-4356           
1 53224U 22084AM  22226.91667824  .00001604  00000+0  29118-4 0  9994
2 53224  97.6532 286.3085 0001563 103.4335 145.3948 15.51280796  3793
STARLINK-4358           
1 53225U 22084AN  22226.91667824 -.00063141  00000+0 -10858-2 0  9990
2 53225  97.6515 286.3038 0001731 105.3962 147.9285 15.51263937  1302
STARLINK-4359           
1 53226U 22084AP  22226.91667824  .00000576  00000+0  11586-4 0  9993
2 53226  97.6530 286.3077 0001727 107.6917 143.2913 15.51238302  1308
STARLINK-4366           
1 53227U 22084AQ  22226.91667824 -.00052345  00000+0 -89779-3 0  9995
2 53227  97.6519 286.3036 0001842 105.5351 149.2136 15.51289781  1308
STARLINK-4365           
1 53228U 22084AR  22226.91667824 -.00084824  00000+0 -14607-2 0  9990
2 53228  97.6517 286.3045 0001673 113.2552 139.2792 15.51313347  1301
STARLINK-4367           
1 53229U 22084AS  22226.91667824  .00000181  00000+0  48262-5 0  9990
2 53229  97.6512 286.3022 0002153 110.9084 144.2672 15.51290424  1303
STARLINK-4364           
1 53230U 22084AT  22226.91667824 -.00084193  00000+0 -14497-2 0  9999
2 53230  97.6514 286.3037 0001783 106.6310 147.3544 15.51312940  1305
STARLINK-4370           
1 53231U 22084AU  22226.91667824 -.00052679  00000+0 -90265-3 0  9992
2 53231  97.6517 286.3005 0001557 105.3143 151.5011 15.51319410  1308
STARLINK-4371           
1 53232U 22084AV  22226.91667824 -.00000315  00000+0 -36485-5 0  9999
2 53232  97.6512 286.3012 0001470 106.9456 149.1868 15.51247079  1304
STARLINK-4372           
1 53233U 22084AW  22226.91667824 -.00011806  00000+0 -20003-3 0  9994
2 53233  97.6522 286.2996 0001695 104.3441 153.1776 15.51301992  1309
STARLINK-4368           
1 53234U 22084AX  22226.91667824  .00000846  00000+0  16170-4 0  9996
2 53234  97.6510 286.2988 0001511 112.2881 145.8784 15.51289195  1308
FALCON 9 DEB            
1 53235U 22084AY  22226.84210127  .00165051  12267-4  52521-3 0  9991
2 53235  97.6731 287.0300 0010553 186.8623 173.2507 15.91077092  3820
FALCON 9 DEB            
1 53236U 22084AZ  22226.77306047  .00163040  12086-4  50639-3 0  9994
2 53236  97.6691 286.9605 0007954 178.8662 181.2630 15.91595324  3815
FALCON 9 DEB            
1 53237U 22084BA  22226.69266696  .00193340  16349-4  54974-3 0  9999
2 53237  97.6645 286.9039 0011900 167.5554 192.6016 15.93215357  3807
FALCON 9 DEB            
1 53238U 22084BB  22226.87732434  .00190824  16025-4  53599-3 0  9995
2 53238  97.6639 287.1192 0011347 158.3849 201.7906 15.93461537  3830
CSS (WENTIAN)           
1 53239U 22085A   22226.30709491  .00021377  00000+0  24524-3 0  9995
2 53239  41.4702 224.9596 0003691  82.6885  98.5207 15.61555144 73856
STARLINK-4056           
1 53242U 22086A   22226.91667824 -.00034768  00000+0 -24328-3 0  9992
2 53242  53.2183 297.5319 0008516 294.1912 237.9329 15.73236839  3997
STARLINK-4047           
1 53243U 22086B   22226.91667824 -.01122533  00000+0 -12717-1 0  9999
2 53243  53.2174 297.6167 0001204  62.7736  48.2505 15.64319827  3998
STARLINK-4125           
1 53244U 22086C   22226.91667824 -.01122172  00000+0 -12703-1 0  9994
2 53244  53.2174 297.6287 0001586  37.8293  75.7781 15.64335292  3991
STARLINK-4124           
1 53245U 22086D   22226.91667824 -.01122517  00000+0 -12713-1 0  9999
2 53245  53.2174 297.6213 0001227  60.2521  51.4618 15.64327127  3995
STARLINK-4131           
1 53246U 22086E   22226.91667824 -.01122568  00000+0 -12710-1 0  9993
2 53246  53.2174 297.6253 0001201  63.5128  48.8909 15.64334488  3992
STARLINK-4061           
1 53247U 22086F   22226.91667824 -.00033464  00000+0 -23452-3 0  9996
2 53247  53.2191 297.5324 0005743 308.4030 224.9874 15.73213720  1304
STARLINK-4135           
1 53248U 22086G   22226.91667824 -.00012954  00000+0 -87884-4 0  9998
2 53248  53.2192 297.5311 0002512  18.7917 155.1309 15.73229161  1302
STARLINK-4128           
1 53249U 22086H   22226.91667824 -.00069668  00000+0 -49480-3 0  9992
2 53249  53.2175 297.5282 0002826  15.7459 159.9406 15.73254122  3999
STARLINK-4059           
1 53250U 22086J   22226.91667824 -.00076706  00000+0 -54596-3 0  9999
2 53250  53.2189 297.5292 0002627  22.0664 152.4691 15.73243545  1309
STARLINK-4129           
1 53251U 22086K   22226.91667824 -.00001447  00000+0 -58739-5 0  9995
2 53251  53.2190 297.5245 0002508  18.0987 158.8098 15.73223824  3997
STARLINK-4132           
1 53252U 22086L   22226.91667824 -.00033829  00000+0 -23687-3 0  9997
2 53252  53.2189 297.5280 0002259  24.2426 150.7731 15.73265573  3997
STARLINK-4133           
1 53253U 22086M   22226.91667824 -.00126436  00000+0 -90517-3 0  9991
2 53253  53.2178 297.5252 0008528 293.0732 244.4156 15.73262773  3997
STARLINK-4134           
1 53254U 22086N   22226.91667824 -.00002426  00000+0 -12843-4 0  9991
2 53254  53.2189 297.5253 0002813  16.3285 159.9932 15.73216077  1302
STARLINK-4142           
1 53255U 22086P   22226.91667824 -.00041654  00000+0 -29223-3 0  9997
2 53255  53.2185 297.5198 0008760 293.1362 245.5005 15.73262149  3996
